ONEWEB-0549             
1 56051U 23043F   26015.71323271  .00000021  00000+0  20488-4 0  9997
2 56051  87.9216 274.4016 0001295  75.6209 284.5069 13.21825885138089
ONEWEB-0550             
1 56052U 23043G   26015.77577112  .00000065  00000+0  12638-3 0  9994
2 56052  87.9219 274.3844 0001700  77.8114 282.3210 13.21826968138099
ONEWEB-0551             
1 56053U 23043H   26015.81240060 -.00000301  00000+0 -83337-3 0  9998
2 56053  87.8999 289.6470 0001291  78.3570 281.7706 13.15544098136360
ONEWEB-0552             
1 56054U 23043J   26015.77082206 -.00000008  00000+0 -51052-4 0  9994
2 56054  87.9215 274.3940 0001473  66.4438 293.6850 13.21825146138096
ONEWEB-0553             
1 56055U 23043K   26015.65601891  .00000080  00000+0  17474-3 0  9996
2 56055  87.9029 259.1441 0001756  86.0953 274.0378 13.16596652138900
ONEWEB-0554             
1 56056U 23043L   26015.71935350 -.00000017  00000+0 -79255-4 0  9992
2 56056  87.9028 259.1426 0001730  74.0906 286.0415 13.16595960138894
ONEWEB-0555             
1 56057U 23043M   26015.68136748  .00000029  00000+0  43181-4 0  9993
2 56057  87.9032 259.1337 0001847  92.7662 267.3681 13.16595119138899
ONEWEB-0557             
1 56058U 23043N   26015.69561950 -.00000041  00000+0 -14124-3 0  9992
2 56058  87.9032 259.1435 0002833  78.8601 281.2849 13.16595557138890
